[{"OBJECT_NAME":"STARLINK-32041","OBJECT_ID":"2024-124V","EPOCH":"2026-03-09T22:32:19.884192","MEAN_MOTION":15.3013352,"ECCENTRICITY":0.00019628,"INCLINATION":53.1606,"RA_OF_ASC_NODE":321.3546,"ARG_OF_PERICENTER":100.2545,"MEAN_ANOMALY":259.8677,"EPHEMERIS_TYPE":0,"CLASSIFICATION_TYPE":"U","NORAD_CAT_ID":60202,"ELEMENT_SET_NO":999,"REV_AT_EPOCH":9553,"BSTAR":-0.00013205099,"MEAN_MOTION_DOT":-4.26e-5,"MEAN_MOTION_DDOT":0},{"OBJECT_NAME":"COSMOS 2535 DEB","OBJECT_ID":"2019-039M","EPOCH":"2026-03-08T03:25:35.903424","MEAN_MOTION":15.28322551,"ECCENTRICITY":0.0014917,"INCLINATION":97.5619,"RA_OF_ASC_NODE":139.2722,"ARG_OF_PERICENTER":329.0964,"MEAN_ANOMALY":30.9396,"EPHEMERIS_TYPE":0,"CLASSIFICATION_TYPE":"U","NORAD_CAT_ID":44641,"ELEMENT_SET_NO":999,"REV_AT_EPOCH":35167,"BSTAR":0.0011539757,"MEAN_MOTION_DOT":0.0003196,"MEAN_MOTION_DDOT":0}]
